{"fetched_at":"2026-07-07T18:29:04.699Z","source":"https://celestrak.org/NORAD/elements/gp.php?GROUP=kuiper&FORMAT=JSON","constellation":"kuiper","records":[{"OBJECT_NAME":"KUIPER-00215","OBJECT_ID":"2026-030R","EPOCH":"2026-07-06T23:39:16.706592","CLASSIFICATION_TYPE":"U","MEAN_MOTION":14.76349753,"ECCENTRICITY":0.0000565,"INCLINATION":51.8995,"RA_OF_ASC_NODE":22.868,"ARG_OF_PERICENTER":73.9926,"MEAN_ANOMALY":286.1097,"EPHEMERIS_TYPE":0,"NORAD_CAT_ID":67779,"ELEMENT_SET_NO":999,"REV_AT_EPOCH":2316,"BSTAR":0.00030077,"MEAN_MOTION_DOT":0.00001893,"MEAN_MOTION_DDOT":0},{"OBJECT_NAME":"KUIPER-00218","OBJECT_ID":"2026-030S","EPOCH":"2026-07-07T00:27:15.149376","CLASSIFICATION_TYPE":"U","MEAN_MOTION":14.79941951,"ECCENTRICITY":0.0000665,"INCLINATION":51.8987,"RA_OF_ASC_NODE":37.931,"ARG_OF_PERICENTER":96.3067,"MEAN_ANOMALY":263.7971,"EPHEMERIS_TYPE":0,"NORAD_CAT_ID":67780,"ELEMENT_SET_NO":999,"REV_AT_EPOCH":2295,"BSTAR":0.00017241,"MEAN_MOTION_DOT":0.00001094,"MEAN_MOTION_DDOT":0},{"OBJECT_NAME":"KUIPER-00220","OBJECT_ID":"2026-030T","EPOCH":"2026-07-07T10:00:05.000256","CLASSIFICATION_TYPE":"U","MEAN_MOTION":14.80437063,"ECCENTRICITY":0.000185,"INCLINATION":51.8966,"RA_OF_ASC_NODE":11.2123,"ARG_OF_PERICENTER":169.3895,"MEAN_ANOMALY":6.3645,"EPHEMERIS_TYPE":0,"NORAD_CAT_ID":67781,"ELEMENT_SET_NO":999,"REV_AT_EPOCH":554,"BSTAR":-0.00097457,"MEAN_MOTION_DOT":-0.00007733,"MEAN_MOTION_DDOT":0},{"OBJECT_NAME":"KUIPER-00222","OBJECT_ID":"2026-030U","EPOCH":"2026-07-06T23:46:26.601024","CLASSIFICATION_TYPE":"U","MEAN_MOTION":14.79918541,"ECCENTRICITY":0.0000867,"INCLINATION":51.8984,"RA_OF_ASC_NODE":33.2089,"ARG_OF_PERICENTER":104.9501,"MEAN_ANOMALY":255.1558,"EPHEMERIS_TYPE":0,"NORAD_CAT_ID":67782,"ELEMENT_SET_NO":999,"REV_AT_EPOCH":2301,"BSTAR":-0.00059513,"MEAN_MOTION_DOT":-0.00004753,"MEAN_MOTION_DDOT":0},{"OBJECT_NAME":"KUIPER-00223","OBJECT_ID":"2026-030V","EPOCH":"2026-07-06T23:09:26.840736","CLASSIFICATION_TYPE":"U","MEAN_MOTION":14.79922601,"ECCENTRICITY":0.0000699,"INCLINATION":51.9016,"RA_OF_ASC_NODE":25.6141,"ARG_OF_PERICENTER":110.8839,"MEAN_ANOMALY":249.2198,"EPHEMERIS_TYPE":0,"NORAD_CAT_ID":67783,"ELEMENT_SET_NO":999,"REV_AT_EPOCH":2312,"BSTAR":-0.000068441,"MEAN_MOTION_DOT":-0.00000743,"MEAN_MOTION_DDOT":0},{"OBJECT_NAME":"KUIPER-00225","OBJECT_ID":"2026-030W","EPOCH":"2026-07-06T23:01:45.892416","CLASSIFICATION_TYPE":"U","MEAN_MOTION":14.79928742,"ECCENTRICITY":0.0000744,"INCLINATION":51.8985,"RA_OF_ASC_NODE":30.8031,"ARG_OF_PERICENTER":87.2585,"MEAN_ANOMALY":272.8462,"EPHEMERIS_TYPE":0,"NORAD_CAT_ID":67784,"ELEMENT_SET_NO":999,"REV_AT_EPOCH":2304,"BSTAR":0.0003676,"MEAN_MOTION_DOT":0.00002582,"MEAN_MOTION_DDOT":0},{"OBJECT_NAME":"KUIPER-00226","OBJECT_ID":"2026-030X","EPOCH":"2026-07-05T22:15:03.479904","CLASSIFICATION_TYPE":"U","MEAN_MOTION":14.87300843,"ECCENTRICITY":0.0016743,"INCLINATION":51.8986,"RA_OF_ASC_NODE":21.341,"ARG_OF_PERICENTER":116.004,"MEAN_ANOMALY":244.2652,"EPHEMERIS_TYPE":0,"NORAD_CAT_ID":67785,"ELEMENT_SET_NO":999,"REV_AT_EPOCH":2309,"BSTAR":0.000030863,"MEAN_MOTION_DOT":4e-7,"MEAN_MOTION_DDOT":0},{"OBJECT_NAME":"KUIPER-00259","OBJECT_ID":"2026-030Y","EPOCH":"2026-07-06T23:50:18.081312","CLASSIFICATION_TYPE":"U","MEAN_MOTION":14.79935965,"ECCENTRICITY":0.0000771,"INCLINATION":51.8986,"RA_OF_ASC_NODE":30.5556,"ARG_OF_PERICENTER":101.4669,"MEAN_ANOMALY":258.638,"EPHEMERIS_TYPE":0,"NORAD_CAT_ID":67786,"ELEMENT_SET_NO":999,"REV_AT_EPOCH":2305,"BSTAR":0.00016346,"MEAN_MOTION_DOT":0.00001025,"MEAN_MOTION_DDOT":0},{"OBJECT_NAME":"KUIPER-00260","OBJECT_ID":"2026-030Z","EPOCH":"2026-07-06T23:54:12.510432","CLASSIFICATION_TYPE":"U","MEAN_MOTION":14.79924574,"ECCENTRICITY":0.000061,"INCLINATION":51.9014,"RA_OF_ASC_NODE":28.1384,"ARG_OF_PERICENTER":105.593,"MEAN_ANOMALY":254.5099,"EPHEMERIS_TYPE":0,"NORAD_CAT_ID":67787,"ELEMENT_SET_NO":999,"REV_AT_EPOCH":2299,"BSTAR":0.000057398,"MEAN_MOTION_DOT":0.00000216,"MEAN_MOTION_DDOT":0},{"OBJECT_NAME":"KUIPER-00262","OBJECT_ID":"2026-030AA","EPOCH":"2026-07-06T23:05:34.492128","CLASSIFICATION_TYPE":"U","MEAN_MOTION":14.79937535,"ECCENTRICITY":0.0000871,"INCLINATION":51.9011,"RA_OF_ASC_NODE":28.206,"ARG_OF_PERICENTER":105.6581,"MEAN_ANOMALY":254.4477,"EPHEMERIS_TYPE":0,"NORAD_CAT_ID":67788,"ELEMENT_SET_NO":999,"REV_AT_EPOCH":2308,"BSTAR":-0.00066443,"MEAN_MOTION_DOT":-0.00005283,"MEAN_MOTION_DDOT":0},{"OBJECT_NAME":"KUIPER-00266","OBJECT_ID":"2026-030AB","EPOCH":"2026-07-06T20:43:34.912128","CLASSIFICATION_TYPE":"U","MEAN_MOTION":14.79925313,"ECCENTRICITY":0.0002537,"INCLINATION":51.8993,"RA_OF_ASC_NODE":26.1381,"ARG_OF_PERICENTER":149.1945,"MEAN_ANOMALY":210.9166,"EPHEMERIS_TYPE":0,"NORAD_CAT_ID":67789,"ELEMENT_SET_NO":999,"REV_AT_EPOCH":2310,"BSTAR":-0.0002255,"MEAN_MOTION_DOT":-0.0000194,"MEAN_MOTION_DDOT":0},{"OBJECT_NAME":"KUIPER-00268","OBJECT_ID":"2026-030AC","EPOCH":"2026-07-07T12:11:11.411808","CLASSIFICATION_TYPE":"U","MEAN_MOTION":14.79935366,"ECCENTRICITY":0.0000506,"INCLINATION":51.9045,"RA_OF_ASC_NODE":20.802,"ARG_OF_PERICENTER":109.6497,"MEAN_ANOMALY":250.452,"EPHEMERIS_TYPE":0,"NORAD_CAT_ID":67790,"ELEMENT_SET_NO":999,"REV_AT_EPOCH":2323,"BSTAR":-0.0025011,"MEAN_MOTION_DOT":-0.00019234,"MEAN_MOTION_DDOT":0},{"OBJECT_NAME":"KUIPER-00270","OBJECT_ID":"2026-030AD","EPOCH":"2026-07-07T11:38:07.057824","CLASSIFICATION_TYPE":"U","MEAN_MOTION":14.79866048,"ECCENTRICITY":0.0000323,"INCLINATION":51.8986,"RA_OF_ASC_NODE":10.8913,"ARG_OF_PERICENTER":41.0096,"MEAN_ANOMALY":319.0891,"EPHEMERIS_TYPE":0,"NORAD_CAT_ID":67791,"ELEMENT_SET_NO":999,"REV_AT_EPOCH":2337,"BSTAR":0.0075971,"MEAN_MOTION_DOT":0.00058104,"MEAN_MOTION_DDOT":0},{"OBJECT_NAME":"KUIPER-00274","OBJECT_ID":"2026-030AE","EPOCH":"2026-07-06T23:42:32.737824","CLASSIFICATION_TYPE":"U","MEAN_MOTION":14.79925757,"ECCENTRICITY":0.0000677,"INCLINATION":51.9021,"RA_OF_ASC_NODE":35.583,"ARG_OF_PERICENTER":149.2886,"MEAN_ANOMALY":210.8116,"EPHEMERIS_TYPE":0,"NORAD_CAT_ID":67792,"ELEMENT_SET_NO":999,"REV_AT_EPOCH":2298,"BSTAR":-0.000027335,"MEAN_MOTION_DOT":-0.00000429,"MEAN_MOTION_DDOT":0},{"OBJECT_NAME":"KUIPER-00275","OBJECT_ID":"2026-030AF","EPOCH":"2026-07-07T11:34:17.579424","CLASSIFICATION_TYPE":"U","MEAN_MOTION":14.79922918,"ECCENTRICITY":0.0000695,"INCLINATION":51.8995,"RA_OF_ASC_NODE":13.4056,"ARG_OF_PERICENTER":118.3573,"MEAN_ANOMALY":241.746,"EPHEMERIS_TYPE":0,"NORAD_CAT_ID":67793,"ELEMENT_SET_NO":999,"REV_AT_EPOCH":2333,"BSTAR":0.00028372,"MEAN_MOTION_DOT":0.00001942,"MEAN_MOTION_DDOT":0},{"OBJECT_NAME":"KUIPER-00276","OBJECT_ID":"2026-030AG","EPOCH":"2026-07-06T23:17:12.902208","CLASSIFICATION_TYPE":"U","MEAN_MOTION":14.79929607,"ECCENTRICITY":0.0002766,"INCLINATION":51.8972,"RA_OF_ASC_NODE":20.6546,"ARG_OF_PERICENTER":114.0667,"MEAN_ANOMALY":246.0585,"EPHEMERIS_TYPE":0,"NORAD_CAT_ID":67794,"ELEMENT_SET_NO":999,"REV_AT_EPOCH":2319,"BSTAR":0.00014004,"MEAN_MOTION_DOT":0.00000846,"MEAN_MOTION_DDOT":0}]}
