KUIPER-00215            
1 67779U 26030R   26187.98561003  .00001893  00000+0  30077-3 0  9993
2 67779  51.8995  22.8680 0000565  73.9926 286.1097 14.76349753 23167
KUIPER-00218            
1 67780U 26030S   26188.01892534  .00001094  00000+0  17241-3 0  9997
2 67780  51.8987  37.9310 0000665  96.3067 263.7971 14.79941951 22952
KUIPER-00220            
1 67781U 26030T   26188.41672454 -.00007733  00000+0 -97457-3 0  9994
2 67781  51.8966  11.2123 0001850 169.3895   6.3645 14.80437063  5545
KUIPER-00222            
1 67782U 26030U   26187.99058566 -.00004753  00000+0 -59513-3 0  9999
2 67782  51.8984  33.2089 0000867 104.9501 255.1558 14.79918541 23019
KUIPER-00223            
1 67783U 26030V   26187.96489399 -.00000743  00000+0 -68441-4 0  9995
2 67783  51.9016  25.6141 0000699 110.8839 249.2198 14.79922601 23122
KUIPER-00225            
1 67784U 26030W   26187.95955894  .00002582  00000+0  36760-3 0  9992
2 67784  51.8985  30.8031 0000744  87.2585 272.8462 14.79928742 23048
KUIPER-00226            
1 67785U 26030X   26186.92712361  .00000040  00000+0  30863-4 0  9995
2 67785  51.8986  21.3410 0016743 116.0040 244.2652 14.87300843 23093
KUIPER-00259            
1 67786U 26030Y   26187.99326483  .00001025  00000+0  16346-3 0  9993
2 67786  51.8986  30.5556 0000771 101.4669 258.6380 14.79935965 23059
KUIPER-00260            
1 67787U 26030Z   26187.99597813  .00000216  00000+0  57398-4 0  9995
2 67787  51.9014  28.1384 0000610 105.5930 254.5099 14.79924574 22991
KUIPER-00262            
1 67788U 26030AA  26187.96220477 -.00005283  00000+0 -66443-3 0  9993
2 67788  51.9011  28.2060 0000871 105.6581 254.4477 14.79937535 23084
KUIPER-00266            
1 67789U 26030AB  26187.86359852 -.00001940  00000+0 -22550-3 0  9990
2 67789  51.8993  26.1381 0002537 149.1945 210.9166 14.79925313 23100
KUIPER-00268            
1 67790U 26030AC  26188.50777097 -.00019234  00000+0 -25011-2 0  9998
2 67790  51.9045  20.8020 0000506 109.6497 250.4520 14.79935366 23235
KUIPER-00270            
1 67791U 26030AD  26188.48480391  .00058104  00000+0  75971-2 0  9991
2 67791  51.8986  10.8913 0000323  41.0096 319.0891 14.79866048 23378
KUIPER-00274            
1 67792U 26030AE  26187.98787891 -.00000429  00000+0 -27335-4 0  9993
2 67792  51.9021  35.5830 0000677 149.2886 210.8116 14.79925757 22989
KUIPER-00275            
1 67793U 26030AF  26188.48214791  .00001942  00000+0  28372-3 0  9994
2 67793  51.8995  13.4056 0000695 118.3573 241.7460 14.79922918 23335
KUIPER-00276            
1 67794U 26030AG  26187.97028822  .00000846  00000+0  14004-3 0  9995
2 67794  51.8972  20.6546 0002766 114.0667 246.0585 14.79929607 23195
